[{"OBJECT_NAME":"SL-8 R/B","OBJECT_ID":"1988-053B","EPOCH":"2026-04-25T05:57:46.869696","MEAN_MOTION":14.38941601,"ECCENTRICITY":0.0020628,"INCLINATION":74.0496,"RA_OF_ASC_NODE":26.642,"ARG_OF_PERICENTER":198.5547,"MEAN_ANOMALY":278.5165,"EPHEMERIS_TYPE":0,"CLASSIFICATION_TYPE":"U","NORAD_CAT_ID":19257,"ELEMENT_SET_NO":999,"REV_AT_EPOCH":98329,"BSTAR":6.5850762e-5,"MEAN_MOTION_DOT":1.77e-6,"MEAN_MOTION_DDOT":0},{"OBJECT_NAME":"COSMOS 1975","OBJECT_ID":"1988-093A","EPOCH":"2026-04-25T06:35:20.674176","MEAN_MOTION":15.28638164,"ECCENTRICITY":0.00118428,"INCLINATION":82.5187,"RA_OF_ASC_NODE":70.8879,"ARG_OF_PERICENTER":17.0059,"MEAN_ANOMALY":343.1575,"EPHEMERIS_TYPE":0,"CLASSIFICATION_TYPE":"U","NORAD_CAT_ID":19573,"ELEMENT_SET_NO":999,"REV_AT_EPOCH":2652,"BSTAR":0.00023678253,"MEAN_MOTION_DOT":6.639e-5,"MEAN_MOTION_DDOT":0},{"OBJECT_NAME":"SL-14 R/B","OBJECT_ID":"1988-093B","EPOCH":"2026-04-25T05:06:41.920416","MEAN_MOTION":14.85702933,"ECCENTRICITY":0.00192515,"INCLINATION":82.5332,"RA_OF_ASC_NODE":358.3824,"ARG_OF_PERICENTER":242.4036,"MEAN_ANOMALY":239.3794,"EPHEMERIS_TYPE":0,"CLASSIFICATION_TYPE":"U","NORAD_CAT_ID":19574,"ELEMENT_SET_NO":999,"REV_AT_EPOCH":792,"BSTAR":3.5560986e-5,"MEAN_MOTION_DOT":3.33e-6,"MEAN_MOTION_DDOT":0},{"OBJECT_NAME":"SL-16 R/B","OBJECT_ID":"1988-102B","EPOCH":"2026-04-25T05:47:28.198176","MEAN_MOTION":14.16157402,"ECCENTRICITY":0.00162534,"INCLINATION":71.0002,"RA_OF_ASC_NODE":53.5435,"ARG_OF_PERICENTER":295.6305,"MEAN_ANOMALY":64.3139,"EPHEMERIS_TYPE":0,"CLASSIFICATION_TYPE":"U","NORAD_CAT_ID":19650,"ELEMENT_SET_NO":999,"REV_AT_EPOCH":93348,"BSTAR":-2.5645325e-5,"MEAN_MOTION_DOT":-9.9e-7,"MEAN_MOTION_DDOT":0},{"OBJECT_NAME":"INTERCOSMOS 24","OBJECT_ID":"1989-080A","EPOCH":"2026-04-25T06:32:33.661248","MEAN_MOTION":12.59600957,"ECCENTRICITY":0.11875098,"INCLINATION":82.6039,"RA_OF_ASC_NODE":74.0657,"ARG_OF_PERICENTER":184.6423,"MEAN_ANOMALY":174.2817,"EPHEMERIS_TYPE":0,"CLASSIFICATION_TYPE":"U","NORAD_CAT_ID":20261,"ELEMENT_SET_NO":999,"REV_AT_EPOCH":67266,"BSTAR":7.857835e-5,"MEAN_MOTION_DOT":2.84e-6,"MEAN_MOTION_DDOT":0},{"OBJECT_NAME":"SL-14 R/B","OBJECT_ID":"1989-080C","EPOCH":"2026-04-25T02:58:01.575840","MEAN_MOTION":12.50528581,"ECCENTRICITY":0.12309941,"INCLINATION":82.5909,"RA_OF_ASC_NODE":143.3879,"ARG_OF_PERICENTER":78.6723,"MEAN_ANOMALY":294.9846,"EPHEMERIS_TYPE":0,"CLASSIFICATION_TYPE":"U","NORAD_CAT_ID":20262,"ELEMENT_SET_NO":999,"REV_AT_EPOCH":66595,"BSTAR":7.4799633e-5,"MEAN_MOTION_DOT":2.81e-6,"MEAN_MOTION_DDOT":0},{"OBJECT_NAME":"DELTA 1 R/B","OBJECT_ID":"1989-089B","EPOCH":"2026-04-25T02:37:57.448416","MEAN_MOTION":14.50696455,"ECCENTRICITY":0.00683891,"INCLINATION":97.0667,"RA_OF_ASC_NODE":315.1518,"ARG_OF_PERICENTER":337.0884,"MEAN_ANOMALY":22.7267,"EPHEMERIS_TYPE":0,"CLASSIFICATION_TYPE":"U","NORAD_CAT_ID":20323,"ELEMENT_SET_NO":999,"REV_AT_EPOCH":90246,"BSTAR":5.6471817e-5,"MEAN_MOTION_DOT":1.93e-6,"MEAN_MOTION_DDOT":0},{"OBJECT_NAME":"ARIANE 40 R/B","OBJECT_ID":"1990-005H","EPOCH":"2026-04-25T03:55:34.492224","MEAN_MOTION":14.3989866,"ECCENTRICITY":0.0011222,"INCLINATION":98.2998,"RA_OF_ASC_NODE":174.4188,"ARG_OF_PERICENTER":68.819,"MEAN_ANOMALY":291.4197,"EPHEMERIS_TYPE":0,"CLASSIFICATION_TYPE":"U","NORAD_CAT_ID":20443,"ELEMENT_SET_NO":999,"REV_AT_EPOCH":89949,"BSTAR":7.8933998e-5,"MEAN_MOTION_DOT":2.06e-6,"MEAN_MOTION_DDOT":0},{"OBJECT_NAME":"DELTA 2 R/B(1)","OBJECT_ID":"1990-008B","EPOCH":"2026-04-24T14:36:10.556928","MEAN_MOTION":15.61797679,"ECCENTRICITY":0.00745421,"INCLINATION":35.6013,"RA_OF_ASC_NODE":232.1038,"ARG_OF_PERICENTER":329.5895,"MEAN_ANOMALY":30.0532,"EPHEMERIS_TYPE":0,"CLASSIFICATION_TYPE":"U","NORAD_CAT_ID":20453,"ELEMENT_SET_NO":999,"REV_AT_EPOCH":93330,"BSTAR":0.00051688228,"MEAN_MOTION_DOT":0.00053603,"MEAN_MOTION_DDOT":0},{"OBJECT_NAME":"COSMOS 2058","OBJECT_ID":"1990-010A","EPOCH":"2026-04-25T04:28:45.872256","MEAN_MOTION":15.1169502,"ECCENTRICITY":0.00096769,"INCLINATION":82.4696,"RA_OF_ASC_NODE":1.6167,"ARG_OF_PERICENTER":162.8379,"MEAN_ANOMALY":197.318,"EPHEMERIS_TYPE":0,"CLASSIFICATION_TYPE":"U","NORAD_CAT_ID":20465,"ELEMENT_SET_NO":999,"REV_AT_EPOCH":94926,"BSTAR":0.00016046851,"MEAN_MOTION_DOT":2.762e-5,"MEAN_MOTION_DDOT":0},{"OBJECT_NAME":"SL-14 R/B","OBJECT_ID":"1990-010B","EPOCH":"2026-04-25T07:00:18.778464","MEAN_MOTION":14.83611672,"ECCENTRICITY":0.00207614,"INCLINATION":82.5041,"RA_OF_ASC_NODE":223.612,"ARG_OF_PERICENTER":143.0003,"MEAN_ANOMALY":217.2648,"EPHEMERIS_TYPE":0,"CLASSIFICATION_TYPE":"U","NORAD_CAT_ID":20466,"ELEMENT_SET_NO":999,"REV_AT_EPOCH":93539,"BSTAR":4.6758235e-5,"MEAN_MOTION_DOT":4.11e-6,"MEAN_MOTION_DDOT":0},{"OBJECT_NAME":"SL-14 R/B","OBJECT_ID":"1990-018B","EPOCH":"2026-04-25T05:15:50.669280","MEAN_MOTION":14.8218427,"ECCENTRICITY":0.00148773,"INCLINATION":82.5231,"RA_OF_ASC_NODE":179.6141,"ARG_OF_PERICENTER":301.3998,"MEAN_ANOMALY":58.576,"EPHEMERIS_TYPE":0,"CLASSIFICATION_TYPE":"U","NORAD_CAT_ID":20511,"ELEMENT_SET_NO":999,"REV_AT_EPOCH":92947,"BSTAR":3.3384227e-5,"MEAN_MOTION_DOT":2.9e-6,"MEAN_MOTION_DDOT":0},{"OBJECT_NAME":"HST","OBJECT_ID":"1990-037B","EPOCH":"2026-04-25T06:13:12.297504","MEAN_MOTION":15.30141373,"ECCENTRICITY":0.00016616,"INCLINATION":28.4745,"RA_OF_ASC_NODE":82.1433,"ARG_OF_PERICENTER":276.7624,"MEAN_ANOMALY":83.2783,"EPHEMERIS_TYPE":0,"CLASSIFICATION_TYPE":"U","NORAD_CAT_ID":20580,"ELEMENT_SET_NO":999,"REV_AT_EPOCH":78045,"BSTAR":0.00022090399,"MEAN_MOTION_DOT":6.863e-5,"MEAN_MOTION_DDOT":0},{"OBJECT_NAME":"SL-16 R/B","OBJECT_ID":"1990-046B","EPOCH":"2026-04-25T05:05:45.480480","MEAN_MOTION":14.15015135,"ECCENTRICITY":0.00161008,"INCLINATION":70.9992,"RA_OF_ASC_NODE":200.2048,"ARG_OF_PERICENTER":237.9175,"MEAN_ANOMALY":122.0385,"EPHEMERIS_TYPE":0,"CLASSIFICATION_TYPE":"U","NORAD_CAT_ID":20625,"ELEMENT_SET_NO":999,"REV_AT_EPOCH":85497,"BSTAR":5.2488389e-5,"MEAN_MOTION_DOT":5.4e-7,"MEAN_MOTION_DDOT":0},{"OBJECT_NAME":"COSMOS 2084","OBJECT_ID":"1990-055A","EPOCH":"2026-04-25T06:35:01.017312","MEAN_MOTION":15.05900791,"ECCENTRICITY":0.00098052,"INCLINATION":62.7885,"RA_OF_ASC_NODE":176.6589,"ARG_OF_PERICENTER":209.92,"MEAN_ANOMALY":150.1341,"EPHEMERIS_TYPE":0,"CLASSIFICATION_TYPE":"U","NORAD_CAT_ID":20663,"ELEMENT_SET_NO":999,"REV_AT_EPOCH":94333,"BSTAR":0.00013172585,"MEAN_MOTION_DOT":1.723e-5,"MEAN_MOTION_DDOT":0},{"OBJECT_NAME":"SL-6 R/B(2)","OBJECT_ID":"1990-055D","EPOCH":"2026-04-25T06:07:10.178688","MEAN_MOTION":15.03794825,"ECCENTRICITY":0.00322984,"INCLINATION":62.7808,"RA_OF_ASC_NODE":95.4695,"ARG_OF_PERICENTER":356.7855,"MEAN_ANOMALY":3.3032,"EPHEMERIS_TYPE":0,"CLASSIFICATION_TYPE":"U","NORAD_CAT_ID":20666,"ELEMENT_SET_NO":999,"REV_AT_EPOCH":94519,"BSTAR":0.00016689208,"MEAN_MOTION_DOT":2.125e-5,"MEAN_MOTION_DDOT":0},{"OBJECT_NAME":"SL-8 R/B","OBJECT_ID":"1990-078B","EPOCH":"2026-04-25T06:10:08.956704","MEAN_MOTION":14.90352809,"ECCENTRICITY":0.03562126,"INCLINATION":82.905,"RA_OF_ASC_NODE":209.3906,"ARG_OF_PERICENTER":216.6654,"MEAN_ANOMALY":140.9716,"EPHEMERIS_TYPE":0,"CLASSIFICATION_TYPE":"U","NORAD_CAT_ID":20775,"ELEMENT_SET_NO":999,"REV_AT_EPOCH":81623,"BSTAR":0.00064193879,"MEAN_MOTION_DOT":0.00021909,"MEAN_MOTION_DDOT":0}]
