SL-8 R/B                
1 19257U 88053B   26115.24845914  .00000177  00000+0  65851-4 0  9993
2 19257  74.0496  26.6420 0020628 198.5547 278.5165 14.38941601983295
COSMOS 1975             
1 19573U 88093A   26115.27454484  .00006639  00000+0  23678-3 0  9998
2 19573  82.5187  70.8879 0011842  17.0059 343.1575 15.28638164 26522
SL-14 R/B               
1 19574U 88093B   26115.21298519  .00000333  00000+0  35561-4 0  9998
2 19574  82.5332 358.3824 0019251 242.4036 239.3794 14.85702933  7920
SL-16 R/B               
1 19650U 88102B   26115.24129859 -.00000099  00000+0 -25645-4 0  9990
2 19650  71.0002  53.5435 0016253 295.6305  64.3139 14.16157402933489
INTERCOSMOS 24          
1 20261U 89080A   26115.27261182  .00000284  00000+0  78578-4 0  9992
2 20261  82.6039  74.0657 1187509 184.6423 174.2817 12.59600957672660
SL-14 R/B               
1 20262U 89080C   26115.12362935  .00000281  00000+0  74800-4 0  9996
2 20262  82.5909 143.3879 1230994  78.6723 294.9846 12.50528581665953
DELTA 1 R/B             
1 20323U 89089B   26115.10969269  .00000193  00000+0  56472-4 0  9991
2 20323  97.0667 315.1518 0068389 337.0884  22.7267 14.50696455902460
ARIANE 40 R/B           
1 20443U 90005H   26115.16359366  .00000206  00000+0  78934-4 0  9993
2 20443  98.2998 174.4188 0011222  68.8190 291.4197 14.39898660899499
DELTA 2 R/B(1)          
1 20453U 90008B   26114.60845552  .00053603  00000+0  51688-3 0  9997
2 20453  35.6013 232.1038 0074542 329.5895  30.0532 15.61797679933305
COSMOS 2058             
1 20465U 90010A   26115.18664204  .00002762  00000+0  16047-3 0  9990
2 20465  82.4696   1.6167 0009676 162.8379 197.3180 15.11695020949268
SL-14 R/B               
1 20466U 90010B   26115.29188401  .00000411  00000+0  46758-4 0  9995
2 20466  82.5041 223.6120 0020761 143.0003 217.2648 14.83611672935391
SL-14 R/B               
1 20511U 90018B   26115.21933645  .00000290  00000+0  33384-4 0  9990
2 20511  82.5231 179.6141 0014877 301.3998  58.5760 14.82184270929470
HST                     
1 20580U 90037B   26115.25917011  .00006863  00000+0  22090-3 0  9993
2 20580  28.4745  82.1433 0001661 276.7624  83.2783 15.30141373780459
SL-16 R/B               
1 20625U 90046B   26115.21233195  .00000054  00000+0  52488-4 0  9994
2 20625  70.9992 200.2048 0016100 237.9175 122.0385 14.15015135854971
COSMOS 2084             
1 20663U 90055A   26115.27431733  .00001723  00000+0  13173-3 0  9991
2 20663  62.7885 176.6589 0009805 209.9200 150.1341 15.05900791943335
SL-6 R/B(2)             
1 20666U 90055D   26115.25497892  .00002125  00000+0  16689-3 0  9992
2 20666  62.7808  95.4695 0032298 356.7855   3.3032 15.03794825945197
SL-8 R/B                
1 20775U 90078B   26115.25704811  .00021909  00000+0  64194-3 0  9995
2 20775  82.9050 209.3906 0356212 216.6654 140.9716 14.90352809816234
